STARLINK-5166           
1 54085U 22136AL  25346.31969217  .00000928  00000+0  76403-4 0  9996
2 54085  53.2201   6.3772 0001668  96.5098 263.6084 15.08844482173790
STARLINK-5211           
1 54086U 22136AM  25346.32197640  .00000329  00000+0  38777-4 0  9998
2 54086  53.2201 351.4330 0001385  76.1858 283.9289 15.08828579174005
STARLINK-5184           
1 54087U 22136AN  25346.28188883  .00000720  00000+0  63353-4 0  9996
2 54087  53.2194   6.1496 0001336  94.6619 265.4526 15.08837145173793
STARLINK-5153           
1 54088U 22136AP  25346.25986947  .00000070  00000+0  22469-4 0  9992
2 54088  53.2196   6.7126 0001597  91.0840 269.0335 15.08833433173781
STARLINK-5143           
1 54089U 22136AQ  25346.30399618  .00000199  00000+0  30608-4 0  9998
2 54089  53.2181   6.2782 0001269  90.6491 269.4646 15.08840891173798
STARLINK-5177           
1 54090U 22136AR  25346.30768049  .00000311  00000+0  37640-4 0  9997
2 54090  53.2205   6.3037 0001571  97.0516 263.0655 15.08841044173797
STARLINK-5221           
1 54091U 22136AS  25346.27820032  .00000358  00000+0  40559-4 0  9999
2 54091  53.2182   6.1244 0001445  94.0181 266.0977 15.08840434173797
STARLINK-5190           
1 54092U 22136AT  25345.97754698  .00043552  00000+0  63762-3 0  9993
2 54092  53.1834 241.2344 0005627  85.2863 274.8791 15.55160310175523
STARLINK-5213           
1 54093U 22136AU  25346.29294071 -.00001536  00000+0 -78438-4 0  9999
2 54093  53.2190   6.2154 0001165  80.8955 279.2169 15.08831714173790
STARLINK-5219           
1 54094U 22136AV  25346.33349537  .01381479  00000+0  20555-1 0  9993
2 54094  53.2206   3.1436 0001589  76.2269 190.2944 15.52044010  5808
STARLINK-5193           
1 54095U 22136AW  25346.28557110 -.00000527  00000+0 -15025-4 0  9998
2 54095  53.2188   6.1635 0001433  91.3532 268.7624 15.08841019173796
STARLINK-5188           
1 54096U 22136AX  25346.29663922  .00000225  00000+0  32235-4 0  9994
2 54096  53.2179   6.2285 0001191  78.6156 281.4970 15.08827575173797
STARLINK-5197           
1 54097U 22136AY  25346.30445823  .00000476  00000+0  47978-4 0  9993
2 54097  53.2196 341.3392 0001490  88.5382 271.5781 15.08846268174142
STARLINK-5217           
1 54098U 22136AZ  25346.28293707 -.00000013  00000+0  17277-4 0  9990
2 54098  53.2196   6.8392 0000812  97.3205 262.7880 15.08826205173785
STARLINK-5198           
1 54099U 22136BA  25346.27451954 -.00000504  00000+0 -13551-4 0  9997
2 54099  53.2161   6.0961 0001553  98.9317 261.1851 15.08834690173795
STARLINK-5185           
1 54100U 22136BB  25346.28925640  .00001386  00000+0  10515-3 0  9992
2 54100  53.2189   6.1889 0001565  95.1601 264.9570 15.08839184173798
