[{"OBJECT_NAME":"STARLINK-5166","OBJECT_ID":"2022-136AL","EPOCH":"2025-12-12T07:40:21.403488","MEAN_MOTION":15.08844482,"ECCENTRICITY":0.00016684,"INCLINATION":53.2201,"RA_OF_ASC_NODE":6.3772,"ARG_OF_PERICENTER":96.5098,"MEAN_ANOMALY":263.6084,"EPHEMERIS_TYPE":0,"CLASSIFICATION_TYPE":"U","NORAD_CAT_ID":54085,"ELEMENT_SET_NO":999,"REV_AT_EPOCH":17379,"BSTAR":7.6402954e-5,"MEAN_MOTION_DOT":9.28e-6,"MEAN_MOTION_DDOT":0},{"OBJECT_NAME":"STARLINK-5211","OBJECT_ID":"2022-136AM","EPOCH":"2025-12-12T07:43:38.760960","MEAN_MOTION":15.08828579,"ECCENTRICITY":0.0001385,"INCLINATION":53.2201,"RA_OF_ASC_NODE":351.433,"ARG_OF_PERICENTER":76.1858,"MEAN_ANOMALY":283.9289,"EPHEMERIS_TYPE":0,"CLASSIFICATION_TYPE":"U","NORAD_CAT_ID":54086,"ELEMENT_SET_NO":999,"REV_AT_EPOCH":17400,"BSTAR":3.8777316e-5,"MEAN_MOTION_DOT":3.29e-6,"MEAN_MOTION_DDOT":0},{"OBJECT_NAME":"STARLINK-5184","OBJECT_ID":"2022-136AN","EPOCH":"2025-12-12T06:45:55.194912","MEAN_MOTION":15.08837145,"ECCENTRICITY":0.00013362,"INCLINATION":53.2194,"RA_OF_ASC_NODE":6.1496,"ARG_OF_PERICENTER":94.6619,"MEAN_ANOMALY":265.4526,"EPHEMERIS_TYPE":0,"CLASSIFICATION_TYPE":"U","NORAD_CAT_ID":54087,"ELEMENT_SET_NO":999,"REV_AT_EPOCH":17379,"BSTAR":6.3352693e-5,"MEAN_MOTION_DOT":7.2e-6,"MEAN_MOTION_DDOT":0},{"OBJECT_NAME":"STARLINK-5153","OBJECT_ID":"2022-136AP","EPOCH":"2025-12-12T06:14:12.722208","MEAN_MOTION":15.08833433,"ECCENTRICITY":0.00015976,"INCLINATION":53.2196,"RA_OF_ASC_NODE":6.7126,"ARG_OF_PERICENTER":91.084,"MEAN_ANOMALY":269.0335,"EPHEMERIS_TYPE":0,"CLASSIFICATION_TYPE":"U","NORAD_CAT_ID":54088,"ELEMENT_SET_NO":999,"REV_AT_EPOCH":17378,"BSTAR":2.2469021e-5,"MEAN_MOTION_DOT":7.0e-7,"MEAN_MOTION_DDOT":0},{"OBJECT_NAME":"STARLINK-5143","OBJECT_ID":"2022-136AQ","EPOCH":"2025-12-12T07:17:45.269952","MEAN_MOTION":15.08840891,"ECCENTRICITY":0.00012695,"INCLINATION":53.2181,"RA_OF_ASC_NODE":6.2782,"ARG_OF_PERICENTER":90.6491,"MEAN_ANOMALY":269.4646,"EPHEMERIS_TYPE":0,"CLASSIFICATION_TYPE":"U","NORAD_CAT_ID":54089,"ELEMENT_SET_NO":999,"REV_AT_EPOCH":17379,"BSTAR":3.0608104e-5,"MEAN_MOTION_DOT":1.99e-6,"MEAN_MOTION_DDOT":0},{"OBJECT_NAME":"STARLINK-5177","OBJECT_ID":"2022-136AR","EPOCH":"2025-12-12T07:23:03.594336","MEAN_MOTION":15.08841044,"ECCENTRICITY":0.00015711,"INCLINATION":53.2205,"RA_OF_ASC_NODE":6.3037,"ARG_OF_PERICENTER":97.0516,"MEAN_ANOMALY":263.0655,"EPHEMERIS_TYPE":0,"CLASSIFICATION_TYPE":"U","NORAD_CAT_ID":54090,"ELEMENT_SET_NO":999,"REV_AT_EPOCH":17379,"BSTAR":3.7640424e-5,"MEAN_MOTION_DOT":3.11e-6,"MEAN_MOTION_DDOT":0},{"OBJECT_NAME":"STARLINK-5221","OBJECT_ID":"2022-136AS","EPOCH":"2025-12-12T06:40:36.507648","MEAN_MOTION":15.08840434,"ECCENTRICITY":0.00014458,"INCLINATION":53.2182,"RA_OF_ASC_NODE":6.1244,"ARG_OF_PERICENTER":94.0181,"MEAN_ANOMALY":266.0977,"EPHEMERIS_TYPE":0,"CLASSIFICATION_TYPE":"U","NORAD_CAT_ID":54091,"ELEMENT_SET_NO":999,"REV_AT_EPOCH":17379,"BSTAR":4.0559244e-5,"MEAN_MOTION_DOT":3.58e-6,"MEAN_MOTION_DDOT":0},{"OBJECT_NAME":"STARLINK-5190","OBJECT_ID":"2022-136AT","EPOCH":"2025-12-11T23:27:40.059072","MEAN_MOTION":15.5516031,"ECCENTRICITY":0.0005627,"INCLINATION":53.1834,"RA_OF_ASC_NODE":241.2344,"ARG_OF_PERICENTER":85.2863,"MEAN_ANOMALY":274.8791,"EPHEMERIS_TYPE":0,"CLASSIFICATION_TYPE":"U","NORAD_CAT_ID":54092,"ELEMENT_SET_NO":999,"REV_AT_EPOCH":17552,"BSTAR":0.00063762,"MEAN_MOTION_DOT":0.00043552,"MEAN_MOTION_DDOT":0},{"OBJECT_NAME":"STARLINK-5213","OBJECT_ID":"2022-136AU","EPOCH":"2025-12-12T07:01:50.077344","MEAN_MOTION":15.08831714,"ECCENTRICITY":0.00011655,"INCLINATION":53.219,"RA_OF_ASC_NODE":6.2154,"ARG_OF_PERICENTER":80.8955,"MEAN_ANOMALY":279.2169,"EPHEMERIS_TYPE":0,"CLASSIFICATION_TYPE":"U","NORAD_CAT_ID":54093,"ELEMENT_SET_NO":999,"REV_AT_EPOCH":17379,"BSTAR":-7.8438016e-5,"MEAN_MOTION_DOT":-1.536e-5,"MEAN_MOTION_DDOT":0},{"OBJECT_NAME":"STARLINK-5219","OBJECT_ID":"2022-136AV","EPOCH":"2025-12-12T08:00:13.999968","MEAN_MOTION":15.5204401,"ECCENTRICITY":0.0001589,"INCLINATION":53.2206,"RA_OF_ASC_NODE":3.1436,"ARG_OF_PERICENTER":76.2269,"MEAN_ANOMALY":190.2944,"EPHEMERIS_TYPE":0,"CLASSIFICATION_TYPE":"U","NORAD_CAT_ID":54094,"ELEMENT_SET_NO":999,"REV_AT_EPOCH":580,"BSTAR":0.020555334,"MEAN_MOTION_DOT":0.01381479,"MEAN_MOTION_DDOT":0},{"OBJECT_NAME":"STARLINK-5193","OBJECT_ID":"2022-136AW","EPOCH":"2025-12-12T06:51:13.343040","MEAN_MOTION":15.08841019,"ECCENTRICITY":0.00014331,"INCLINATION":53.2188,"RA_OF_ASC_NODE":6.1635,"ARG_OF_PERICENTER":91.3532,"MEAN_ANOMALY":268.7624,"EPHEMERIS_TYPE":0,"CLASSIFICATION_TYPE":"U","NORAD_CAT_ID":54095,"ELEMENT_SET_NO":999,"REV_AT_EPOCH":17379,"BSTAR":-1.5025099e-5,"MEAN_MOTION_DOT":-5.27e-6,"MEAN_MOTION_DDOT":0},{"OBJECT_NAME":"STARLINK-5188","OBJECT_ID":"2022-136AX","EPOCH":"2025-12-12T07:07:09.628608","MEAN_MOTION":15.08827575,"ECCENTRICITY":0.00011919,"INCLINATION":53.2179,"RA_OF_ASC_NODE":6.2285,"ARG_OF_PERICENTER":78.6156,"MEAN_ANOMALY":281.497,"EPHEMERIS_TYPE":0,"CLASSIFICATION_TYPE":"U","NORAD_CAT_ID":54096,"ELEMENT_SET_NO":999,"REV_AT_EPOCH":17379,"BSTAR":3.223461e-5,"MEAN_MOTION_DOT":2.25e-6,"MEAN_MOTION_DDOT":0},{"OBJECT_NAME":"STARLINK-5197","OBJECT_ID":"2022-136AY","EPOCH":"2025-12-12T07:18:25.191072","MEAN_MOTION":15.08846268,"ECCENTRICITY":0.00014906,"INCLINATION":53.2196,"RA_OF_ASC_NODE":341.3392,"ARG_OF_PERICENTER":88.5382,"MEAN_ANOMALY":271.5781,"EPHEMERIS_TYPE":0,"CLASSIFICATION_TYPE":"U","NORAD_CAT_ID":54097,"ELEMENT_SET_NO":999,"REV_AT_EPOCH":17414,"BSTAR":4.7978427e-5,"MEAN_MOTION_DOT":4.76e-6,"MEAN_MOTION_DDOT":0},{"OBJECT_NAME":"STARLINK-5217","OBJECT_ID":"2022-136AZ","EPOCH":"2025-12-12T06:47:25.762848","MEAN_MOTION":15.08826205,"ECCENTRICITY":8.126e-5,"INCLINATION":53.2196,"RA_OF_ASC_NODE":6.8392,"ARG_OF_PERICENTER":97.3205,"MEAN_ANOMALY":262.788,"EPHEMERIS_TYPE":0,"CLASSIFICATION_TYPE":"U","NORAD_CAT_ID":54098,"ELEMENT_SET_NO":999,"REV_AT_EPOCH":17378,"BSTAR":1.7277262e-5,"MEAN_MOTION_DOT":-1.3e-7,"MEAN_MOTION_DDOT":0},{"OBJECT_NAME":"STARLINK-5198","OBJECT_ID":"2022-136BA","EPOCH":"2025-12-12T06:35:18.488256","MEAN_MOTION":15.0883469,"ECCENTRICITY":0.00015531,"INCLINATION":53.2161,"RA_OF_ASC_NODE":6.0961,"ARG_OF_PERICENTER":98.9317,"MEAN_ANOMALY":261.1851,"EPHEMERIS_TYPE":0,"CLASSIFICATION_TYPE":"U","NORAD_CAT_ID":54099,"ELEMENT_SET_NO":999,"REV_AT_EPOCH":17379,"BSTAR":-1.3550697e-5,"MEAN_MOTION_DOT":-5.04e-6,"MEAN_MOTION_DDOT":0},{"OBJECT_NAME":"STARLINK-5185","OBJECT_ID":"2022-136BB","EPOCH":"2025-12-12T06:56:31.752960","MEAN_MOTION":15.08839184,"ECCENTRICITY":0.00015657,"INCLINATION":53.2189,"RA_OF_ASC_NODE":6.1889,"ARG_OF_PERICENTER":95.1601,"MEAN_ANOMALY":264.957,"EPHEMERIS_TYPE":0,"CLASSIFICATION_TYPE":"U","NORAD_CAT_ID":54100,"ELEMENT_SET_NO":999,"REV_AT_EPOCH":17379,"BSTAR":0.00010515498,"MEAN_MOTION_DOT":1.386e-5,"MEAN_MOTION_DDOT":0}]
